TOMORROW-S1             
1 60479U 24149M   26068.72470524  .00008620  00000+0  28856-3 0  9996
2 60479  97.3791 149.6044 0001819 207.2040 152.9106 15.31198362 86867
STARLINK-35416          
1 66248U 25245Q   26068.86677438  .00030403  00000+0  10330-2 0  9993
2 66248  53.1591 283.0705 0001605  57.4199 302.6957 15.30244737 21229
